[{"OBJECT_NAME":"STARLINK-2099","OBJECT_ID":"2021-005AG","EPOCH":"2026-03-09T05:25:23.086560","MEAN_MOTION":15.30188698,"ECCENTRICITY":0.00013497,"INCLINATION":53.1612,"RA_OF_ASC_NODE":15.6956,"ARG_OF_PERICENTER":92.1215,"MEAN_ANOMALY":267.9941,"EPHEMERIS_TYPE":0,"CLASSIFICATION_TYPE":"U","NORAD_CAT_ID":47379,"ELEMENT_SET_NO":999,"REV_AT_EPOCH":28365,"BSTAR":2.4152043e-5,"MEAN_MOTION_DOT":3.56e-6,"MEAN_MOTION_DDOT":0},{"OBJECT_NAME":"PEGASUS R\/B","OBJECT_ID":"2006-008D","EPOCH":"2026-03-09T19:52:27.636960","MEAN_MOTION":12.3450933,"ECCENTRICITY":0.15655654,"INCLINATION":105.501,"RA_OF_ASC_NODE":149.9277,"ARG_OF_PERICENTER":6.1273,"MEAN_ANOMALY":355.6706,"EPHEMERIS_TYPE":0,"CLASSIFICATION_TYPE":"U","NORAD_CAT_ID":28983,"ELEMENT_SET_NO":999,"REV_AT_EPOCH":81445,"BSTAR":0.00096837459,"MEAN_MOTION_DOT":0.00029646,"MEAN_MOTION_DDOT":3.226784e-6}]
